{
  "type": "FeatureCollection",
  "features": [
    {
      "type": "Feature",
      "properties": {
        "norad_id": 33860,
        "name": "IRIDIUM 33 DEB",
        "group": "iridium-33-debris",
        "lat": 22.789991898661274,
        "lon": 26.476164712426346,
        "alt_km": 665.5489394417473,
        "timestamp": "2025-12-17T21:39:46.074769+00:00",
        "meta_object_name": "IRIDIUM 33 DEB",
        "meta_object_id": "1997-051AD",
        "meta_epoch": "2025-12-17T14:04:30.366912",
        "meta_mean_motion": 14.67427414,
        "meta_eccentricity": 0.00068357,
        "meta_inclination": 86.3831,
        "meta_ra_of_asc_node": 25.0932,
        "meta_arg_of_pericenter": 340.0038,
        "meta_mean_anomaly": 173.8145,
        "meta_ephemeris_type": 0,
        "meta_classification_type": "U",
        "meta_norad_cat_id": 33860,
        "meta_element_set_no": 999,
        "meta_rev_at_epoch": 88793,
        "meta_bstar": 0.00085669112,
        "meta_mean_motion_dot": 4.869e-05,
        "meta_mean_motion_ddot": 0,
        "tle_line1": "1 33860U 97051AD  25351.58646258  .00004869  00000+0  85669-3 0  9995",
        "tle_line2": "2 33860  86.3831  25.0932 0006835 340.0038 173.8145 14.67427414887936"
      },
      "geometry": {
        "type": "Point",
        "coordinates": [
          26.476164712426346,
          22.789991898661274
        ]
      }
    },
    {
      "type": "Feature",
      "properties": {
        "norad_id": 33862,
        "name": "IRIDIUM 33 DEB",
        "group": "iridium-33-debris",
        "lat": 81.2835308226025,
        "lon": -168.92590243610883,
        "alt_km": 629.1416791577485,
        "timestamp": "2025-12-17T21:39:46.074779+00:00",
        "meta_object_name": "IRIDIUM 33 DEB",
        "meta_object_id": "1997-051AF",
        "meta_epoch": "2025-12-17T15:13:23.215008",
        "meta_mean_motion": 14.69553333,
        "meta_eccentricity": 0.00529911,
        "meta_inclination": 86.409,
        "meta_ra_of_asc_node": 35.3724,
        "meta_arg_of_pericenter": 52.7991,
        "meta_mean_anomaly": 66.1029,
        "meta_ephemeris_type": 0,
        "meta_classification_type": "U",
        "meta_norad_cat_id": 33862,
        "meta_element_set_no": 999,
        "meta_rev_at_epoch": 88895,
        "meta_bstar": 0.0010243514,
        "meta_mean_motion_dot": 6.236e-05,
        "meta_mean_motion_ddot": 0,
        "tle_line1": "1 33862U 97051AF  25351.63429647  .00006236  00000+0  10244-2 0  9990",
        "tle_line2": "2 33862  86.4090  35.3724 0052991  52.7991  66.1029 14.69553333888958"
      },
      "geometry": {
        "type": "Point",
        "coordinates": [
          -168.92590243610883,
          81.2835308226025
        ]
      }
    },
    {
      "type": "Feature",
      "properties": {
        "norad_id": 33866,
        "name": "IRIDIUM 33 DEB",
        "group": "iridium-33-debris",
        "lat": 60.1937635646211,
        "lon": 97.33698689765505,
        "alt_km": 792.9782543148485,
        "timestamp": "2025-12-17T21:39:46.074789+00:00",
        "meta_object_name": "IRIDIUM 33 DEB",
        "meta_object_id": "1997-051AK",
        "meta_epoch": "2025-12-17T13:00:26.354880",
        "meta_mean_motion": 14.25290361,
        "meta_eccentricity": 0.01148301,
        "meta_inclination": 86.3002,
        "meta_ra_of_asc_node": 91.004,
        "meta_arg_of_pericenter": 146.1647,
        "meta_mean_anomaly": 226.2743,
        "meta_ephemeris_type": 0,
        "meta_classification_type": "U",
        "meta_norad_cat_id": 33866,
        "meta_element_set_no": 999,
        "meta_rev_at_epoch": 86879,
        "meta_bstar": 0.00045771981,
        "meta_mean_motion_dot": 1.174e-05,
        "meta_mean_motion_ddot": 0,
        "tle_line1": "1 33866U 97051AK  25351.54197170  .00001174  00000+0  45772-3 0  9998",
        "tle_line2": "2 33866  86.3002  91.0040 0114830 146.1647 226.2743 14.25290361868794"
      },
      "geometry": {
        "type": "Point",
        "coordinates": [
          97.33698689765505,
          60.1937635646211
        ]
      }
    },
    {
      "type": "Feature",
      "properties": {
        "norad_id": 33867,
        "name": "IRIDIUM 33 DEB",
        "group": "iridium-33-debris",
        "lat": -46.71285970795474,
        "lon": -16.465879218102607,
        "alt_km": 350.3563478928645,
        "timestamp": "2025-12-17T21:39:46.074799+00:00",
        "meta_object_name": "IRIDIUM 33 DEB",
        "meta_object_id": "1997-051AL",
        "meta_epoch": "2025-12-17T11:12:10.089216",
        "meta_mean_motion": 15.76880715,
        "meta_eccentricity": 0.00138273,
        "meta_inclination": 86.3655,
        "meta_ra_of_asc_node": 347.633,
        "meta_arg_of_pericenter": 92.1241,
        "meta_mean_anomaly": 268.1616,
        "meta_ephemeris_type": 0,
        "meta_classification_type": "U",
        "meta_norad_cat_id": 33867,
        "meta_element_set_no": 999,
        "meta_rev_at_epoch": 89585,
        "meta_bstar": 0.0065228292,
        "meta_mean_motion_dot": 0.01179271,
        "meta_mean_motion_ddot": 0,
        "tle_line1": "1 33867U 97051AL  25351.46678344  .01179271  00000+0  65228-2 0  9999",
        "tle_line2": "2 33867  86.3655 347.6330 0013827  92.1241 268.1616 15.76880715895851"
      },
      "geometry": {
        "type": "Point",
        "coordinates": [
          -16.465879218102607,
          -46.71285970795474
        ]
      }
    },
    {
      "type": "Feature",
      "properties": {
        "norad_id": 33870,
        "name": "IRIDIUM 33 DEB",
        "group": "iridium-33-debris",
        "lat": -2.697492460027507,
        "lon": -123.78092498212297,
        "alt_km": 727.9401365458434,
        "timestamp": "2025-12-17T21:39:46.074808+00:00",
        "meta_object_name": "IRIDIUM 33 DEB",
        "meta_object_id": "1997-051AP",
        "meta_epoch": "2025-12-17T14:45:12.418848",
        "meta_mean_motion": 14.45876792,
        "meta_eccentricity": 0.00220154,
        "meta_inclination": 86.3748,
        "meta_ra_of_asc_node": 56.1713,
        "meta_arg_of_pericenter": 162.3404,
        "meta_mean_anomaly": 322.5971,
        "meta_ephemeris_type": 0,
        "meta_classification_type": "U",
        "meta_norad_cat_id": 33870,
        "meta_element_set_no": 999,
        "meta_rev_at_epoch": 88207,
        "meta_bstar": 0.00055194684,
        "meta_mean_motion_dot": 1.986e-05,
        "meta_mean_motion_ddot": 0,
        "tle_line1": "1 33870U 97051AP  25351.61472707  .00001986  00000+0  55195-3 0  9994",
        "tle_line2": "2 33870  86.3748  56.1713 0022015 162.3404 322.5971 14.45876792882079"
      },
      "geometry": {
        "type": "Point",
        "coordinates": [
          -123.78092498212297,
          -2.697492460027507
        ]
      }
    },
    {
      "type": "Feature",
      "properties": {
        "norad_id": 33881,
        "name": "IRIDIUM 33 DEB",
        "group": "iridium-33-debris",
        "lat": -70.84300191033617,
        "lon": -65.01952106138317,
        "alt_km": 713.4693117589122,
        "timestamp": "2025-12-17T21:39:46.074818+00:00",
        "meta_object_name": "IRIDIUM 33 DEB",
        "meta_object_id": "1997-051BA",
        "meta_epoch": "2025-12-17T13:59:16.230336",
        "meta_mean_motion": 14.56660218,
        "meta_eccentricity": 0.00614907,
        "meta_inclination": 86.386,
        "meta_ra_of_asc_node": 104.6373,
        "meta_arg_of_pericenter": 159.0678,
        "meta_mean_anomaly": 215.4693,
        "meta_ephemeris_type": 0,
        "meta_classification_type": "U",
        "meta_norad_cat_id": 33881,
        "meta_element_set_no": 999,
        "meta_rev_at_epoch": 87571,
        "meta_bstar": 0.0015160031,
        "meta_mean_motion_dot": 6.964e-05,
        "meta_mean_motion_ddot": 0,
        "tle_line1": "1 33881U 97051BA  25351.58282674  .00006964  00000+0  15160-2 0  9992",
        "tle_line2": "2 33881  86.3860 104.6373 0061490 159.0678 215.4693 14.56660218875713"
      },
      "geometry": {
        "type": "Point",
        "coordinates": [
          -65.01952106138317,
          -70.84300191033617
        ]
      }
    },
    {
      "type": "Feature",
      "properties": {
        "norad_id": 33884,
        "name": "IRIDIUM 33 DEB",
        "group": "iridium-33-debris",
        "lat": -44.07236731930957,
        "lon": -168.9876710006572,
        "alt_km": 642.7938388817165,
        "timestamp": "2025-12-17T21:39:46.074827+00:00",
        "meta_object_name": "IRIDIUM 33 DEB",
        "meta_object_id": "1997-051BD",
        "meta_epoch": "2025-12-17T13:04:54.280416",
        "meta_mean_motion": 14.77523621,
        "meta_eccentricity": 0.00093111,
        "meta_inclination": 86.3696,
        "meta_ra_of_asc_node": 7.6497,
        "meta_arg_of_pericenter": 305.3412,
        "meta_mean_anomaly": 178.2939,
        "meta_ephemeris_type": 0,
        "meta_classification_type": "U",
        "meta_norad_cat_id": 33884,
        "meta_element_set_no": 999,
        "meta_rev_at_epoch": 88918,
        "meta_bstar": 0.0011919689,
        "meta_mean_motion_dot": 8.535e-05,
        "meta_mean_motion_ddot": 0,
        "tle_line1": "1 33884U 97051BD  25351.54507269  .00008535  00000+0  11920-2 0  9997",
        "tle_line2": "2 33884  86.3696   7.6497 0009311 305.3412 178.2939 14.77523621889182"
      },
      "geometry": {
        "type": "Point",
        "coordinates": [
          -168.9876710006572,
          -44.07236731930957
        ]
      }
    }
  ]
}